COSMOS 2433 (720)       
1 32275U 07052A   25333.95017524 -.00000018  00000+0  00000+0 0  9990
2 32275  65.6901 322.6356 0005629 251.4911 108.4661  2.13103956140810
COSMOS 2432 (719)       
1 32276U 07052B   25334.09543551 -.00000018  00000+0  00000+0 0  9991
2 32276  65.7059 322.7547 0011218 310.9925 104.9080  2.13103086140849
COSMOS 2434 (721)       
1 32393U 07065A   25334.15748115  .00000092  00000+0  00000+0 0  9996
2 32393  64.3146 198.6281 0004304  70.4000 339.2769  2.13101193139534
COSMOS 2436 (723)       
1 32395U 07065C   25334.08590824  .00000091  00000+0  00000+0 0  9991
2 32395  64.3233 198.7006 0017704   8.5569 119.3435  2.13099987139487
COSMOS 2456 (730)       
1 36111U 09070A   25334.14075199 -.00000006  00000+0  00000+0 0  9996
2 36111  64.8931  77.7688 0002708 298.5991 255.2491  2.13103448124188
COSMOS 2457 (733)       
1 36112U 09070B   25334.25142249 -.00000008  00000+0  00000+0 0  9992
2 36112  64.8784  77.6127 0004997 155.2893 252.7227  2.13100815124199
COSMOS 2460 (732)       
1 36402U 10007C   25334.21133527 -.00000019  00000+0  00000+0 0  9993
2 36402  65.5366 321.1968 0002817 269.3859 107.1571  2.13106075122493
COSMOS 2476 (744)       
1 37867U 11064A   25329.75180412  .00000017  00000+0  00000+0 0  9998
2 37867  65.1535  79.7464 0023759 232.8078 102.4501  2.13101389109428
