{
  "type": "FeatureCollection",
  "features": [
    {
      "type": "Feature",
      "properties": {
        "OBJECT_NAME": "COSMOS 2433 (720)",
        "OBJECT_ID": "2007-052A",
        "EPOCH": "2025-11-29T22:48:15.140736",
        "MEAN_MOTION": 2.13103956,
        "ECCENTRICITY": 0.0005629,
        "INCLINATION": 65.6901,
        "RA_OF_ASC_NODE": 322.6356,
        "ARG_OF_PERICENTER": 251.4911,
        "MEAN_ANOMALY": 108.4661,
        "EPHEMERIS_TYPE": 0,
        "CLASSIFICATION_TYPE": "U",
        "NORAD_CAT_ID": 32275,
        "ELEMENT_SET_NO": 999,
        "REV_AT_EPOCH": 14081,
        "BSTAR": 0,
        "MEAN_MOTION_DOT": -1.8e-07,
        "MEAN_MOTION_DDOT": 0,
        "norad_id": 32275,
        "name": "COSMOS 2433 (720)",
        "group": "glo-ops",
        "longitude_deg": NaN,
        "latitude_deg": NaN,
        "alt_km": NaN,
        "orbit_class": "HEO",
        "timestamp": "2025-11-30T09:33:02.501702+00:00"
      },
      "geometry": {
        "type": "Point",
        "coordinates": [
          NaN,
          NaN
        ]
      }
    },
    {
      "type": "Feature",
      "properties": {
        "OBJECT_NAME": "COSMOS 2432 (719)",
        "OBJECT_ID": "2007-052B",
        "EPOCH": "2025-11-30T02:17:25.628064",
        "MEAN_MOTION": 2.13103086,
        "ECCENTRICITY": 0.0011218,
        "INCLINATION": 65.7059,
        "RA_OF_ASC_NODE": 322.7547,
        "ARG_OF_PERICENTER": 310.9925,
        "MEAN_ANOMALY": 104.908,
        "EPHEMERIS_TYPE": 0,
        "CLASSIFICATION_TYPE": "U",
        "NORAD_CAT_ID": 32276,
        "ELEMENT_SET_NO": 999,
        "REV_AT_EPOCH": 14084,
        "BSTAR": 0,
        "MEAN_MOTION_DOT": -1.8e-07,
        "MEAN_MOTION_DDOT": 0,
        "norad_id": 32276,
        "name": "COSMOS 2432 (719)",
        "group": "glo-ops",
        "longitude_deg": NaN,
        "latitude_deg": NaN,
        "alt_km": NaN,
        "orbit_class": "HEO",
        "timestamp": "2025-11-30T09:33:02.501708+00:00"
      },
      "geometry": {
        "type": "Point",
        "coordinates": [
          NaN,
          NaN
        ]
      }
    },
    {
      "type": "Feature",
      "properties": {
        "OBJECT_NAME": "COSMOS 2434 (721)",
        "OBJECT_ID": "2007-065A",
        "EPOCH": "2025-11-30T03:46:46.371360",
        "MEAN_MOTION": 2.13101193,
        "ECCENTRICITY": 0.0004304,
        "INCLINATION": 64.3146,
        "RA_OF_ASC_NODE": 198.6281,
        "ARG_OF_PERICENTER": 70.4,
        "MEAN_ANOMALY": 339.2769,
        "EPHEMERIS_TYPE": 0,
        "CLASSIFICATION_TYPE": "U",
        "NORAD_CAT_ID": 32393,
        "ELEMENT_SET_NO": 999,
        "REV_AT_EPOCH": 13953,
        "BSTAR": 0,
        "MEAN_MOTION_DOT": 9.2e-07,
        "MEAN_MOTION_DDOT": 0,
        "norad_id": 32393,
        "name": "COSMOS 2434 (721)",
        "group": "glo-ops",
        "longitude_deg": NaN,
        "latitude_deg": NaN,
        "alt_km": NaN,
        "orbit_class": "HEO",
        "timestamp": "2025-11-30T09:33:02.501768+00:00"
      },
      "geometry": {
        "type": "Point",
        "coordinates": [
          NaN,
          NaN
        ]
      }
    },
    {
      "type": "Feature",
      "properties": {
        "OBJECT_NAME": "COSMOS 2436 (723)",
        "OBJECT_ID": "2007-065C",
        "EPOCH": "2025-11-30T02:03:42.471936",
        "MEAN_MOTION": 2.13099987,
        "ECCENTRICITY": 0.0017704,
        "INCLINATION": 64.3233,
        "RA_OF_ASC_NODE": 198.7006,
        "ARG_OF_PERICENTER": 8.5569,
        "MEAN_ANOMALY": 119.3435,
        "EPHEMERIS_TYPE": 0,
        "CLASSIFICATION_TYPE": "U",
        "NORAD_CAT_ID": 32395,
        "ELEMENT_SET_NO": 999,
        "REV_AT_EPOCH": 13948,
        "BSTAR": 0,
        "MEAN_MOTION_DOT": 9.1e-07,
        "MEAN_MOTION_DDOT": 0,
        "norad_id": 32395,
        "name": "COSMOS 2436 (723)",
        "group": "glo-ops",
        "longitude_deg": NaN,
        "latitude_deg": NaN,
        "alt_km": NaN,
        "orbit_class": "HEO",
        "timestamp": "2025-11-30T09:33:02.501775+00:00"
      },
      "geometry": {
        "type": "Point",
        "coordinates": [
          NaN,
          NaN
        ]
      }
    },
    {
      "type": "Feature",
      "properties": {
        "OBJECT_NAME": "COSMOS 2456 (730)",
        "OBJECT_ID": "2009-070A",
        "EPOCH": "2025-11-30T03:22:40.971936",
        "MEAN_MOTION": 2.13103448,
        "ECCENTRICITY": 0.0002708,
        "INCLINATION": 64.8931,
        "RA_OF_ASC_NODE": 77.7688,
        "ARG_OF_PERICENTER": 298.5991,
        "MEAN_ANOMALY": 255.2491,
        "EPHEMERIS_TYPE": 0,
        "CLASSIFICATION_TYPE": "U",
        "NORAD_CAT_ID": 36111,
        "ELEMENT_SET_NO": 999,
        "REV_AT_EPOCH": 12418,
        "BSTAR": 0,
        "MEAN_MOTION_DOT": -6e-08,
        "MEAN_MOTION_DDOT": 0,
        "norad_id": 36111,
        "name": "COSMOS 2456 (730)",
        "group": "glo-ops",
        "longitude_deg": NaN,
        "latitude_deg": NaN,
        "alt_km": NaN,
        "orbit_class": "HEO",
        "timestamp": "2025-11-30T09:33:02.502362+00:00"
      },
      "geometry": {
        "type": "Point",
        "coordinates": [
          NaN,
          NaN
        ]
      }
    },
    {
      "type": "Feature",
      "properties": {
        "OBJECT_NAME": "COSMOS 2457 (733)",
        "OBJECT_ID": "2009-070B",
        "EPOCH": "2025-11-30T06:02:02.903136",
        "MEAN_MOTION": 2.13100815,
        "ECCENTRICITY": 0.0004997,
        "INCLINATION": 64.8784,
        "RA_OF_ASC_NODE": 77.6127,
        "ARG_OF_PERICENTER": 155.2893,
        "MEAN_ANOMALY": 252.7227,
        "EPHEMERIS_TYPE": 0,
        "CLASSIFICATION_TYPE": "U",
        "NORAD_CAT_ID": 36112,
        "ELEMENT_SET_NO": 999,
        "REV_AT_EPOCH": 12419,
        "BSTAR": 0,
        "MEAN_MOTION_DOT": -8e-08,
        "MEAN_MOTION_DDOT": 0,
        "norad_id": 36112,
        "name": "COSMOS 2457 (733)",
        "group": "glo-ops",
        "longitude_deg": NaN,
        "latitude_deg": NaN,
        "alt_km": NaN,
        "orbit_class": "HEO",
        "timestamp": "2025-11-30T09:33:02.502369+00:00"
      },
      "geometry": {
        "type": "Point",
        "coordinates": [
          NaN,
          NaN
        ]
      }
    },
    {
      "type": "Feature",
      "properties": {
        "OBJECT_NAME": "COSMOS 2460 (732)",
        "OBJECT_ID": "2010-007C",
        "EPOCH": "2025-11-30T05:04:19.367328",
        "MEAN_MOTION": 2.13106075,
        "ECCENTRICITY": 0.0002817,
        "INCLINATION": 65.5366,
        "RA_OF_ASC_NODE": 321.1968,
        "ARG_OF_PERICENTER": 269.3859,
        "MEAN_ANOMALY": 107.1571,
        "EPHEMERIS_TYPE": 0,
        "CLASSIFICATION_TYPE": "U",
        "NORAD_CAT_ID": 36402,
        "ELEMENT_SET_NO": 999,
        "REV_AT_EPOCH": 12249,
        "BSTAR": 0,
        "MEAN_MOTION_DOT": -1.9e-07,
        "MEAN_MOTION_DDOT": 0,
        "norad_id": 36402,
        "name": "COSMOS 2460 (732)",
        "group": "glo-ops",
        "longitude_deg": NaN,
        "latitude_deg": NaN,
        "alt_km": NaN,
        "orbit_class": "HEO",
        "timestamp": "2025-11-30T09:33:02.502418+00:00"
      },
      "geometry": {
        "type": "Point",
        "coordinates": [
          NaN,
          NaN
        ]
      }
    },
    {
      "type": "Feature",
      "properties": {
        "OBJECT_NAME": "COSMOS 2476 (744)",
        "OBJECT_ID": "2011-064A",
        "EPOCH": "2025-11-25T18:02:35.875968",
        "MEAN_MOTION": 2.13101389,
        "ECCENTRICITY": 0.00237596,
        "INCLINATION": 65.1535,
        "RA_OF_ASC_NODE": 79.7464,
        "ARG_OF_PERICENTER": 232.8078,
        "MEAN_ANOMALY": 102.4501,
        "EPHEMERIS_TYPE": 0,
        "CLASSIFICATION_TYPE": "U",
        "NORAD_CAT_ID": 37867,
        "ELEMENT_SET_NO": 999,
        "REV_AT_EPOCH": 10942,
        "BSTAR": 0,
        "MEAN_MOTION_DOT": 1.7e-07,
        "MEAN_MOTION_DDOT": 0,
        "norad_id": 37867,
        "name": "COSMOS 2476 (744)",
        "group": "glo-ops",
        "longitude_deg": NaN,
        "latitude_deg": NaN,
        "alt_km": NaN,
        "orbit_class": "HEO",
        "timestamp": "2025-11-30T09:33:02.503126+00:00"
      },
      "geometry": {
        "type": "Point",
        "coordinates": [
          NaN,
          NaN
        ]
      }
    }
  ]
}